SL-16 R/B               
1 19120U 88039B   16322.35480445  .00000078  00000-0  60014-4 0  9998
2 19120  71.0164  52.5085 0020902 158.7567 201.4431 14.19162443476334
COSMOS 1953             
1 19210U 88050A   16320.89302494  .00000367  00000-0  23806-4 0  9994
2 19210  82.5190 240.1331 0011683 267.5838  92.4051 15.05043783524628
SL-8 R/B                
1 19257U 88053B   16321.03144691  .00000033  00000-0  19941-4 0  9993
2 19257  74.0494 248.3940 0020829 195.4352 249.5440 14.37337049488148
COSMOS 1975             
1 19573U 88093A   16321.31337764  .00000796  00000-0  55564-4 0  9991
2 19573  82.5211 191.4004 0013362 308.7537  51.2494 15.03948114527817
SL-14 R/B               
1 19574U 88093B   16321.77384984  .00000106  00000-0  99912-5 0  9999
2 19574  82.5312 343.6560 0023257  96.6123  23.3489 14.83188948517963
SL-16 R/B               
1 19650U 88102B   16322.39762859 -.00000203  00000-0 -79232-4 0  9997
2 19650  70.9990 100.4264 0012985 153.9593 206.2186 14.15751946446017
INTERCOSMOS 24          
1 20261U 89080A   16321.54399937  .00000255  00000-0  74658-4 0  9994
2 20261  82.5924 147.7098 1203876 227.0636 122.3177 12.55840340239270
SL-14 R/B               
1 20262U 89080C   16321.88087531  .00000111  00000-0  27406-4 0  9996
2 20262  82.5946 192.0723 1237718  20.6300 344.0528 12.48835830235213
DELTA 1 R/B             
1 20323U 89089B   16321.86451361  .00000079  00000-0  29659-4 0  9992
2 20323  97.0803 295.5800 0072706  29.5059 331.0211 14.48160170423990
DELTA 2 R/B(1)          
1 20453U 90008B   16322.35693977  .00002877  00000-0  16696-3 0  9999
2 20453  35.6274  34.2314 0292269 207.3982 151.1047 14.82428185416745
COSMOS 2058             
1 20465U 90010A   16321.45626593  .00000527  00000-0  43021-4 0  9998
2 20465  82.4893  92.3712 0014244 293.2434  66.7288 14.97358666453508
SL-14 R/B               
1 20466U 90010B   16321.38469317  .00000110  00000-0  11100-4 0  9991
2 20466  82.5052 211.7069 0019602 321.0740  38.9061 14.81252745445990
SL-14 R/B               
1 20511U 90018B   16322.15739888  .00000088  00000-0  85732-5 0  9996
2 20511  82.5212 151.5651 0019032  88.5731  48.8374 14.79912811440704
HST                     
1 20580U 90037B   16321.20631947  .00000796  00000-0  38441-4 0  9995
2 20580  28.4709 334.6658 0002926  46.6910  33.7268 15.08592232258086
SL-16 R/B               
1 20625U 90046B   16321.86041258  .00000113  00000-0  83353-4 0  9992
2 20625  71.0005 234.7627 0012192  65.7434 294.4960 14.14611309367814
COSMOS 2084             
1 20663U 90055A   16321.15887799  .00000373  00000-0  49271-4 0  9993
2 20663  62.7924 219.0400 0135129  69.0944 292.4553 14.91408738428030
SL-6 R/B(2)             
1 20666U 90055D   16321.47269315  .00000224  00000-0  36491-4 0  9994
2 20666  62.7823 137.3640 0136698  88.3120 273.3626 14.91772345429444
SL-8 R/B                
1 20775U 90078B   16321.74863196  .00002224  00000-0  11269-3 0  9994
2 20775  82.9323 222.1705 0591664 276.1818  77.2313 14.29634046318401
SL-8 R/B                
1 21088U 91006B   16321.25309214  .00000065  00000-0  50632-4 0  9995
2 21088  82.9425 178.5289 0022085 193.5136 303.7944 13.77041913296290
OKEAN-3                 
1 21397U 91039A   16321.51877078  .00000369  00000-0  33516-4 0  9990
2 21397  82.5209 340.4022 0016886 224.8524 135.1332 14.92357822378066
COSMOS 2151             
1 21422U 91042A   16321.43537593  .00000265  00000-0  23760-4 0  9994
2 21422  82.5004  88.8928 0012838 286.4966  73.4842 14.91731231376789
SL-14 R/B               
1 21423U 91042B   16321.85786949  .00000081  00000-0  77654-5 0  9990
2 21423  82.4925 159.8380 0016581 222.5024 137.4906 14.79665491371188
ERS-1                   
1 21574U 91050A   16320.93395186  .00000093  00000-0  45177-4 0  9990
2 21574  98.4327 265.7982 0032040 231.0187 128.8145 14.37537833326941
ARIANE 40 R/B           
1 21610U 91050F   16321.88763912  .00000050  00000-0  29806-4 0  9996
2 21610  98.6369  10.8019 0002780 198.2116 279.5653 14.40771551329542
INTERCOSMOS 25          
1 21819U 91086A   16321.38483059 -.00000612  00000-0 -12458-3 0  9992
2 21819  82.5586 191.0061 1524928 179.6864 180.5569 12.04405820 86663
SL-14 R/B               
1 21820U 91086B   16322.13879661  .00000335  00000-0  63766-4 0  9995
2 21820  82.5619 243.5473 1578059 357.9333   1.5670 11.93234018 81495
SL-8 R/B                
1 21876U 92008B   16322.01743390  .00000052  00000-0  38348-4 0  9991
2 21876  82.9257 274.8800 0033317 266.7081 163.0400 13.75595757242214
SL-8 R/B                
1 21938U 92020B   16321.53995682  .00000129  00000-0  11821-3 0  9994
2 21938  82.9284 158.3439 0030331  66.3342 349.3266 13.75249154234064
SL-16 R/B               
1 22220U 92076B   16321.53317455 -.00000203  00000-0 -77953-4 0  9990
2 22220  70.9983 146.8721 0014895 242.2440 138.0563 14.16407786240668
SL-16 R/B               
1 22285U 92093B   16321.45160808 -.00000223  00000-0 -90540-4 0  9998
2 22285  71.0214 298.5429 0001651  90.2977 269.8335 14.15005092232440
COSMOS 2228             
1 22286U 92094A   16321.83291807  .00000315  00000-0  31767-4 0  9992
2 22286  82.5233 214.2917 0022076 105.0212 255.3451 14.87563642290922
SL-16 R/B               
1 22566U 93016B   16322.12100539 -.00000125  00000-0 -39772-4 0  9997
2 22566  71.0063 152.0628 0007964  97.1704 263.0325 14.14943423221278
COSMOS 2242             
1 22626U 93024A   16320.91011411  .00000331  00000-0  33566-4 0  9990
2 22626  82.5236 242.8534 0020609 107.0655 253.2822 14.87563207274140
SL-16 R/B               
1 22803U 93059B   16320.64733762 -.00000035  00000-0  66489-5 0  9998
2 22803  70.9905 339.4100 0017884 343.0790  16.9735 14.16758775197785
ARIANE 40 R/B           
1 22830U 93061H   16322.13198972 -.00000050  00000-0 -14214-5 0  9992
2 22830  98.8892 326.6340 0010821 181.9796 226.6504 14.31414235207910
COSMOS 2278             
1 23087U 94023A   16322.36066939  .00000055  00000-0  53916-4 0  9992
2 23087  71.0549  81.6959 0008891 193.4698 166.6189 14.13737898164551
SL-16 R/B               
1 23088U 94023B   16321.79011318 -.00000165  00000-0 -60992-4 0  9996
2 23088  71.0017   7.8457 0001734  12.0488 348.0676 14.14652016165509
SL-16 R/B               
1 23343U 94074B   16322.18139971 -.00000001  00000-0  75240-5 0  9997
2 23343  98.1796 350.8441 0007710  41.4781 358.5182 14.76680619185545
SL-16 R/B               
1 23405U 94077B   16320.95681885 -.00000314  00000-0 -13698-3 0  9993
2 23405  70.9825 303.7104 0005141 278.6837  81.3703 14.15187797135097
ERS-2                   
1 23560U 95021A   16321.77228544  .00002055  00000-0  99691-4 0  9995
2 23560  98.5317 279.9966 0002926 326.6959  33.4088 15.19902704143112
ARIANE 40+ R/B          
1 23561U 95021B   16321.10983275  .00000066  00000-0  37292-4 0  9991
2 23561  98.7829 311.5168 0007178 161.3583 240.3282 14.37778838130637
SL-16 R/B               
1 23705U 95058B   16320.90330455  .00000294  00000-0  17579-3 0  9992
2 23705  71.0204 116.5123 0014676 264.0999  95.8451 14.15092390 86713
SL-16 R/B               
1 24298U 96051B   16321.76834425  .00000156  00000-0  11089-3 0  9992
2 24298  70.8420 149.7669 0015235 150.6811 209.5168 14.12452485 41820
ORBVIEW 2 (SEASTAR)     
1 24883U 97037A   16321.21087754  .00000073  00000-0  42381-4 0  9990
2 24883  98.5318  66.8615 0002791  40.9002 319.2391 14.33354230 21398
SL-16 R/B               
1 25400U 98043G   16321.45172601 -.00000000  00000-0  17776-4 0  9997
2 25400  98.4594 270.8013 0009491 191.7921 168.3039 14.25396521954765
SL-16 R/B               
1 25407U 98045B   16321.05662356 -.00000133  00000-0 -43473-4 0  9994
2 25407  71.0086 129.3161 0007810 188.9644 171.1341 14.15756823946011
ISS (ZARYA)             
1 25544U 98067A   16321.65611413  .00006263  00000-0  10345-3 0  9993
2 25544  51.6456  17.6760 0006499 217.4413 249.0302 15.53664557 28700
SL-8 R/B                
1 25723U 99022C   16321.86667140  .00006475  00000-0  11605-3 0  9990
2 25723  48.4168 216.9323 0010428  95.8133 264.4000 15.51101404973504
CZ-4B R/B               
1 25732U 99025C   16321.09746088 -.00000011  00000-0  17020-4 0  9996
2 25732  98.9832 314.3645 0037056 339.3434  70.5782 14.17620697906441
OKEAN-O                 
1 25860U 99039A   16321.47733315  .00000104  00000-0  22580-4 0  9993
2 25860  98.1629 297.7519 0001884  91.2252 268.9173 14.76424284932440
SL-16 R/B               
1 25861U 99039B   16322.06842602  .00000059  00000-0  15430-4 0  9995
2 25861  98.0754 286.3385 0016745  48.1245  80.1591 14.78365672934435
TERRA                   
1 25994U 99068A   16322.29076140  .00000010  00000-0  12173-4 0  9993
2 25994  98.2098  34.3687 0001030 109.6045 250.5262 14.57105967899819
SL-14 R/B               
1 26874U 01032B   16321.18367132  .00042938 -49090-6  13512-3 0  9997
2 26874  82.4544 114.3214 0005070 346.9945  13.1197 15.91134935859728
ENVISAT                 
1 27386U 02009A   16322.21627707  .00000012  00000-0  17821-4 0  9999
2 27386  98.2640   9.9969 0001098  88.2720 271.8595 14.37881620770612
IDEFIX & ARIANE 42P R/B 
1 27422U 02021B   16321.12830699 -.00000026  00000-0  56879-5 0  9992
2 27422  98.2282 327.2380 0012983 144.0206 216.1853 14.29252459756248
AQUA                    
1 27424U 02022A   16320.94904692  .00000200  00000-0  54488-4 0  9995
2 27424  98.2142 259.2280 0002215  70.9769 355.4676 14.57116109773179
CZ-4B R/B               
1 27432U 02024C   16321.89249793 -.00000016  00000-0  15503-4 0  9996
2 27432  98.9584 288.5897 0049491 273.4587 139.1955 14.14030007748791
MIDORI II (ADEOS-II)    
1 27597U 02056A   16322.05743924  .00000060  00000-0  41239-4 0  9990
2 27597  98.3412 294.9778 0000588 140.3773 219.7451 14.27248383725163
H-2A R/B                
1 27601U 02056E   16321.82519266  .00000072  00000-0  41668-4 0  9999
2 27601  98.4043  30.6727 0071833 204.0981 265.0394 14.31747543727427
